<osm version='0.6'><node id='-2' lat='23.958227' lon='120.507139'/><node id='-3' lat='23.958332' lon='120.507518'/><node id='-4' lat='23.959089' lon='120.510252'/><node id='-5' lat='23.9599' lon='120.513289'/><node id='-6' lat='23.960594' lon='120.515784'/><node id='-7' lat='23.961088' lon='120.517581'/><node id='-8' lat='23.961099' lon='120.517626'/><node id='-9' lat='23.961107' lon='120.517655'/><node id='-10' lat='23.96135' lon='120.518544'/><node id='-11' lat='23.961413' lon='120.518775'/><node id='-12' lat='23.961749' lon='120.520003'/><node id='-13' lat='23.961801' lon='120.520198'/><node id='-14' lat='23.961813' lon='120.520236'/><node id='-15' lat='23.962017' lon='120.520918'/><node id='-16' lat='23.962668' lon='120.523362'/><node id='-17' lat='23.962784' lon='120.523924'/><node id='-18' lat='23.962819' lon='120.524284'/><node id='-19' lat='23.962792' lon='120.524655'/><node id='-20' lat='23.962716' lon='120.525025'/><node id='-21' lat='23.961579' lon='120.529312'/><node id='-22' lat='23.961504' lon='120.529593'/><node id='-23' lat='23.961047' lon='120.531296'/><node id='-24' lat='23.960517' lon='120.531202'/><node id='-25' lat='23.960088' lon='120.532103'/><node id='-26' lat='23.960078' lon='120.532427'/><node id='-27' lat='23.960254' lon='120.532792'/><node id='-28' lat='23.960225' lon='120.532995'/><node id='-29' lat='23.960379' lon='120.532978'/><node id='-30' lat='23.960622' lon='120.532884'/><node id='-31' lat='23.960407' lon='120.533633'/><node id='-32' lat='23.960159' lon='120.534548'/><node id='-33' lat='23.959568' lon='120.536733'/><node id='-34' lat='23.959538' lon='120.536864'/><node id='-35' lat='23.958472' lon='120.540956'/><node id='-36' lat='23.95804' lon='120.542592'/><node id='-37' lat='23.957187' lon='120.545764'/><node id='-38' lat='23.95646' lon='120.548407'/><node id='-39' lat='23.956387' lon='120.548936'/><node id='-40' lat='23.956368' lon='120.54915'/><node id='-41' lat='23.956388' lon='120.549608'/><node id='-42' lat='23.956393' lon='120.549716'/><node id='-43' lat='23.95641' lon='120.550131'/><node id='-44' lat='23.956415' lon='120.550263'/><node id='-45' lat='23.95645' lon='120.551165'/><node id='-46' lat='23.956526' lon='120.55216'/><node id='-47' lat='23.956692' lon='120.554336'/><node id='-48' lat='23.956703' lon='120.554532'/><node id='-49' lat='23.956958' lon='120.558832'/><node id='-50' lat='23.95698' lon='120.559062'/><node id='-51' lat='23.957063' lon='120.560282'/><node id='-52' lat='23.95709' lon='120.560674'/><node id='-53' lat='23.957095' lon='120.561251'/><node id='-54' lat='23.957053' lon='120.561613'/><node id='-55' lat='23.957024' lon='120.561816'/><node id='-56' lat='23.956677' lon='120.56352'/><node id='-57' lat='23.956235' lon='120.565459'/><node id='-58' lat='23.95622' lon='120.565523'/><node id='-59' lat='23.956193' lon='120.565641'/><node id='-60' lat='23.956051' lon='120.566295'/><node id='-61' lat='23.956035' lon='120.566252'/><node id='-62' lat='23.95627140139479' lon='120.56980133056642'/><node id='-63' lat='23.956603' lon='120.575518'/><node id='-64' lat='23.956352' lon='120.575889'/><node id='-65' lat='23.956443' lon='120.575957'/><node id='-66' lat='23.956299' lon='120.576219'/><node id='-67' lat='23.956249' lon='120.576387'/><node id='-68' lat='23.956191' lon='120.576598'/><node id='-69' lat='23.955962' lon='120.57742'/><node id='-70' lat='23.955872' lon='120.57801'/><node id='-71' lat='23.955844' lon='120.578229'/><node id='-72' lat='23.955778' lon='120.578744'/><node id='-73' lat='23.95572' lon='120.57919'/><node id='-74' lat='23.955671' lon='120.579558'/><node id='-75' lat='23.955619' lon='120.579942'/><node id='-76' lat='23.95558' lon='120.580239'/><node id='-77' lat='23.955521' lon='120.580672'/><node id='-78' lat='23.955429' lon='120.581391'/><node id='-79' lat='23.955375' lon='120.581802'/><node id='-80' lat='23.955287' lon='120.582412'/><node id='-81' lat='23.955168' lon='120.583278'/><node id='-82' lat='23.955166' lon='120.583295'/><node id='-83' lat='23.955187' lon='120.583926'/><node id='-84' lat='23.955213' lon='120.584732'/><node id='-85' lat='23.955226' lon='120.585118'/><node id='-86' lat='23.955241' lon='120.58545'/><node id='-87' lat='23.955251' lon='120.585685'/><node id='-88' lat='23.955259' lon='120.58608'/><node id='-89' lat='23.955273' lon='120.586268'/><node id='-90' lat='23.955281' lon='120.586504'/><node id='-91' lat='23.955189' lon='120.586981'/><node id='-92' lat='23.955062' lon='120.587393'/><node id='-93' lat='23.955034' lon='120.587488'/><node id='-94' lat='23.955281' lon='120.58744'/><node id='-95' lat='23.955714' lon='120.587303'/><node id='-96' lat='23.956109' lon='120.588083'/><node id='-97' lat='23.956192' lon='120.588317'/><node id='-98' lat='23.956174' lon='120.588534'/><node id='-99' lat='23.956094' lon='120.589524'/><node id='-100' lat='23.956116' lon='120.589576'/><node id='-101' lat='23.956174' lon='120.589645'/><node id='-102' lat='23.956485' lon='120.589816'/><node id='-103' lat='23.956588' lon='120.589841'/><node id='-104' lat='23.956912' lon='120.589918'/><node id='-105' lat='23.956919' lon='120.590234'/><node id='-106' lat='23.957058' lon='120.591147'/><node id='-107' lat='23.957075' lon='120.591268'/><node id='-108' lat='23.957158' lon='120.591635'/><node id='-109' lat='23.957328' lon='120.592804'/><node id='-110' lat='23.957422' lon='120.592931'/><node id='-111' lat='23.957474' lon='120.593249'/><node id='-112' lat='23.95759' lon='120.593891'/><node id='-113' lat='23.957607' lon='120.593979'/><node id='-114' lat='23.957628' lon='120.594407'/><node id='-115' lat='23.957754' lon='120.594997'/><node id='-116' lat='23.957906' lon='120.595408'/><node id='-117' lat='23.957946' lon='120.595572'/><node id='-118' lat='23.95804' lon='120.596939'/><node id='-119' lat='23.958272' lon='120.598044'/><node id='-120' lat='23.95836' lon='120.598679'/><node id='-121' lat='23.958377' lon='120.598751'/><node id='-122' lat='23.958494' lon='120.599692'/><node id='-123' lat='23.958572' lon='120.600247'/><node id='-124' lat='23.958718' lon='120.600911'/><node id='-125' lat='23.958795' lon='120.601354'/><node id='-126' lat='23.95887' lon='120.601701'/><node id='-127' lat='23.958768' lon='120.601733'/><node id='-128' lat='23.958726' lon='120.601846'/><node id='-129' lat='23.958572' lon='120.601966'/><node id='-130' lat='23.958577' lon='120.602147'/><node id='-131' lat='23.958592' lon='120.602249'/><node id='-132' lat='23.958613' lon='120.602473'/><node id='-133' lat='23.958683' lon='120.602815'/><node id='-134' lat='23.958845' lon='120.603316'/><node id='-135' lat='23.958846' lon='120.603315'/><node id='-136' lat='23.958845' lon='120.603316'/><node id='-137' lat='23.958547' lon='120.603362'/><node id='-138' lat='23.958235' lon='120.603451'/><node id='-139' lat='23.958293' lon='120.603522'/><node id='-140' lat='23.958323' lon='120.604418'/><node id='-141' lat='23.958396' lon='120.604697'/><node id='-142' lat='23.958509' lon='120.604799'/><node id='-143' lat='23.958519' lon='120.604807'/><node id='-144' lat='23.958808' lon='120.605019'/><node id='-145' lat='23.959102' lon='120.605426'/><node id='-146' lat='23.959347' lon='120.605362'/><node id='-147' lat='23.959327' lon='120.605115'/><node id='-148' lat='23.959426' lon='120.604836'/><node id='-149' lat='23.959533' lon='120.604718'/><node id='-150' lat='23.959744' lon='120.604611'/><node id='-151' lat='23.959911' lon='120.604606'/><node id='-152' lat='23.960097' lon='120.604638'/><node id='-153' lat='23.960239' lon='120.604622'/><node id='-154' lat='23.960357' lon='120.604563'/><node id='-155' lat='23.960465' lon='120.604472'/><node id='-156' lat='23.960519' lon='120.604402'/><node id='-157' lat='23.960612' lon='120.604332'/><node id='-158' lat='23.960675' lon='120.604305'/><node id='-159' lat='23.960818' lon='120.6043'/><node id='-160' lat='23.960979' lon='120.60437'/><node id='-161' lat='23.961048' lon='120.604434'/><node id='-162' lat='23.961097' lon='120.604509'/><node id='-163' lat='23.961156' lon='120.604692'/><node id='-164' lat='23.961146' lon='120.60489'/><node id='-165' lat='23.961313' lon='120.605105'/><node id='-166' lat='23.961416' lon='120.60541'/><node id='-167' lat='23.961411' lon='120.605475'/><node id='-168' lat='23.96143' lon='120.605555'/><node id='-169' lat='23.961563' lon='120.605931'/><node id='-170' lat='23.961742' lon='120.606374'/><node id='-171' lat='23.961729' lon='120.606411'/><node id='-172' lat='23.961742' lon='120.606374'/><node id='-173' lat='23.961705' lon='120.607154'/><node id='-174' lat='23.961602' lon='120.607942'/><node id='-175' lat='23.961363' lon='120.60877'/><node id='-176' lat='23.961098' lon='120.609295'/><node id='-177' lat='23.960808' lon='120.609606'/><node id='-178' lat='23.960553' lon='120.609853'/><node id='-179' lat='23.960416' lon='120.610159'/><node id='-180' lat='23.960284' lon='120.610666'/><node id='-181' lat='23.960224' lon='120.610952'/><node id='-182' lat='23.960181' lon='120.611477'/><node id='-183' lat='23.960254' lon='120.611837'/><node id='-184' lat='23.960393' lon='120.612081'/><node id='-185' lat='23.96062' lon='120.612236'/><node id='-186' lat='23.960745' lon='120.612456'/><node id='-187' lat='23.960899' lon='120.612868'/><node id='-188' lat='23.961003' lon='120.613202'/><node id='-189' lat='23.961213' lon='120.613523'/><node id='-190' lat='23.961423' lon='120.614015'/><node id='-191' lat='23.961496' lon='120.614315'/><node id='-192' lat='23.961502' lon='120.614457'/><node id='-193' lat='23.961421' lon='120.61505'/><node id='-194' lat='23.961534' lon='120.615326'/><node id='-195' lat='23.961649' lon='120.615538'/><node id='-196' lat='23.961694' lon='120.615816'/><node id='-197' lat='23.961789' lon='120.616126'/><node id='-198' lat='23.961855' lon='120.616389'/><node id='-199' lat='23.961862' lon='120.616601'/><node id='-200' lat='23.961808' lon='120.616794'/><node id='-201' lat='23.96198' lon='120.616904'/><node id='-202' lat='23.962102' lon='120.617229'/><node id='-203' lat='23.96227' lon='120.617483'/><node id='-204' lat='23.962261' lon='120.617562'/><node id='-205' lat='23.962246' lon='120.617697'/><node id='-206' lat='23.962172' lon='120.617954'/><node id='-207' lat='23.962176' lon='120.618194'/><node id='-208' lat='23.962226' lon='120.61834'/><node id='-209' lat='23.96248' lon='120.618415'/><node id='-210' lat='23.962651' lon='120.618502'/><node id='-211' lat='23.962727' lon='120.618652'/><node id='-212' lat='23.962767' lon='120.618977'/><node id='-213' lat='23.96285' lon='120.619317'/><node id='-214' lat='23.962996' lon='120.619572'/><node id='-215' lat='23.963031' lon='120.61979'/><node id='-216' lat='23.963002' lon='120.620005'/><node id='-217' lat='23.962844' lon='120.620215'/><node id='-218' lat='23.962892' lon='120.620529'/><node id='-219' lat='23.962972' lon='120.620774'/><node id='-220' lat='23.962975' lon='120.621152'/><node id='-221' lat='23.963237' lon='120.621734'/><node id='-222' lat='23.963318' lon='120.621986'/><node id='-223' lat='23.963446' lon='120.622185'/><node id='-224' lat='23.963448' lon='120.62237'/><node id='-225' lat='23.963338' lon='120.622582'/><node id='-226' lat='23.963259' lon='120.62307'/><node id='-227' lat='23.963284' lon='120.623387'/><node id='-228' lat='23.963252' lon='120.623574'/><node id='-229' lat='23.96324' lon='120.623848'/><node id='-230' lat='23.963321' lon='120.623864'/><node id='-231' lat='23.963384' lon='120.623741'/><node id='-232' lat='23.963497' lon='120.623558'/><node id='-233' lat='23.963622' lon='120.623454'/><node id='-234' lat='23.96374' lon='120.623075'/><node id='-235' lat='23.963846' lon='120.622849'/><node id='-236' lat='23.963921' lon='120.622829'/><node id='-237' lat='23.964039' lon='120.623053'/><node id='-238' lat='23.96409' lon='120.623022'/><node id='-239' lat='23.964085' lon='120.622897'/><node id='-240' lat='23.964088' lon='120.622755'/><node id='-241' lat='23.964227' lon='120.622831'/><node id='-242' lat='23.964452' lon='120.623173'/><node id='-243' lat='23.964524' lon='120.623207'/><node id='-244' lat='23.964519' lon='120.622927'/><node id='-245' lat='23.964563' lon='120.622918'/><node id='-246' lat='23.964653' lon='120.623061'/><node id='-247' lat='23.964742' lon='120.623247'/><node id='-248' lat='23.964776' lon='120.623385'/><node id='-249' lat='23.964731' lon='120.623609'/><node id='-250' lat='23.964726' lon='120.623733'/><node id='-251' lat='23.964851' lon='120.623935'/><node id='-252' lat='23.965039' lon='120.624062'/><node id='-253' lat='23.965453' lon='120.624211'/><node id='-254' lat='23.965218' lon='120.624682'/><node id='-255' lat='23.965143' lon='120.62516'/><node id='-256' lat='23.965142' lon='120.62517'/><node id='-257' lat='23.964992' lon='120.625278'/><node id='-258' lat='23.964909' lon='120.625354'/><node id='-259' lat='23.964753' lon='120.625621'/><node id='-260' lat='23.96473' lon='120.625792'/><node id='-261' lat='23.964817' lon='120.626288'/><node id='-262' lat='23.964715' lon='120.626438'/><node id='-263' lat='23.964693' lon='120.626687'/><node id='-264' lat='23.964661' lon='120.626882'/><node id='-265' lat='23.96457' lon='120.62734'/><node id='-266' lat='23.964534' lon='120.627566'/><node id='-267' lat='23.964469' lon='120.627677'/><node id='-268' lat='23.964454' lon='120.627763'/><node id='-269' lat='23.964498' lon='120.628032'/><node id='-270' lat='23.964551' lon='120.628284'/><node id='-271' lat='23.964541' lon='120.628291'/><node id='-272' lat='23.964551' lon='120.628284'/><node id='-273' lat='23.964774' lon='120.628109'/><node id='-274' lat='23.964866' lon='120.628035'/><node id='-275' lat='23.965323' lon='120.627673'/><node id='-276' lat='23.965473' lon='120.627608'/><node id='-277' lat='23.965499' lon='120.62761'/><node id='-278' lat='23.965924' lon='120.62763'/><node id='-279' lat='23.966052' lon='120.627586'/><node id='-280' lat='23.966117' lon='120.627565'/><node id='-281' lat='23.966224' lon='120.627501'/><node id='-282' lat='23.966417' lon='120.627308'/><node id='-283' lat='23.966474' lon='120.627219'/><node id='-284' lat='23.966603' lon='120.626991'/><node id='-285' lat='23.966825' lon='120.626514'/><node id='-286' lat='23.967125' lon='120.625956'/><node id='-287' lat='23.967276' lon='120.625656'/><node id='-288' lat='23.967598' lon='120.625098'/><node id='-289' lat='23.967726' lon='120.624948'/><node id='-290' lat='23.967908' lon='120.62482'/><node id='-291' lat='23.968456' lon='120.624497'/><node id='-292' lat='23.969185' lon='120.624304'/><node id='-293' lat='23.969979' lon='120.624003'/><node id='-294' lat='23.970194' lon='120.623896'/><node id='-295' lat='23.970559' lon='120.623617'/><node id='-296' lat='23.970644' lon='120.623574'/><node id='-297' lat='23.970816' lon='120.62351'/><node id='-298' lat='23.971074' lon='120.623488'/><node id='-299' lat='23.971331' lon='120.623446'/><node id='-300' lat='23.972082' lon='120.623252'/><node id='-301' lat='23.972855' lon='120.622823'/><node id='-302' lat='23.973477' lon='120.622609'/><node id='-303' lat='23.973627' lon='120.622544'/><node id='-304' lat='23.973692' lon='120.62248'/><node id='-305' lat='23.97382' lon='120.622308'/><node id='-306' lat='23.973863' lon='120.62218'/><node id='-307' lat='23.973906' lon='120.621901'/><node id='-308' lat='23.973992' lon='120.621557'/><node id='-309' lat='23.974056' lon='120.621429'/><node id='-310' lat='23.974164' lon='120.621343'/><node id='-311' lat='23.974314' lon='120.6213'/><node id='-312' lat='23.97455' lon='120.621278'/><node id='-313' lat='23.974721' lon='120.621235'/><node id='-314' lat='23.974829' lon='120.621193'/><node id='-315' lat='23.974958' lon='120.621107'/><node id='-316' lat='23.975902' lon='120.620205'/><node id='-317' lat='23.976073' lon='120.620055'/><node id='-318' lat='23.976417' lon='120.619798'/><node id='-319' lat='23.976567' lon='120.619733'/><node id='-320' lat='23.976803' lon='120.619669'/><node id='-321' lat='23.97691' lon='120.619648'/><node id='-322' lat='23.977017' lon='120.619648'/><node id='-323' lat='23.977125' lon='120.619669'/><node id='-324' lat='23.977468' lon='120.619776'/><node id='-325' lat='23.977811' lon='120.619841'/><node id='-326' lat='23.977859' lon='120.619844'/><node id='-327' lat='23.978203' lon='120.619866'/><node id='-328' lat='23.978504' lon='120.6199'/><node id='-329' lat='23.978678' lon='120.619951'/><node id='-330' lat='23.978992' lon='120.620098'/><node id='-331' lat='23.97912' lon='120.620141'/><node id='-332' lat='23.979206' lon='120.620141'/><node id='-333' lat='23.979378' lon='120.620098'/><node id='-334' lat='23.980129' lon='120.619733'/><node id='-335' lat='23.980236' lon='120.619669'/><node id='-336' lat='23.980343' lon='120.619583'/><node id='-337' lat='23.980472' lon='120.619412'/><node id='-338' lat='23.980523' lon='120.619346'/><node id='-339' lat='23.980773' lon='120.619025'/><node id='-340' lat='23.98088' lon='120.618939'/><node id='-341' lat='23.98103' lon='120.618832'/><node id='-342' lat='23.98109' lon='120.618803'/><node id='-343' lat='23.981502' lon='120.618682'/><node id='-344' lat='23.981888' lon='120.618553'/><node id='-345' lat='23.982039' lon='120.618489'/><node id='-346' lat='23.982862' lon='120.617996'/><node id='-347' lat='23.982901' lon='120.617974'/><node id='-348' lat='23.98294' lon='120.617952'/><node id='-349' lat='23.983347' lon='120.617824'/><node id='-350' lat='23.983798' lon='120.617716'/><node id='-351' lat='23.983991' lon='120.617609'/><node id='-352' lat='23.984485' lon='120.617244'/><node id='-353' lat='23.984519' lon='120.617289'/><node id='-354' lat='23.985' lon='120.617917'/><node id='-355' lat='23.985215' lon='120.617879'/><node id='-356' lat='23.98531' lon='120.617925'/><node id='-357' lat='23.985376' lon='120.618031'/><node id='-358' lat='23.985538' lon='120.61835'/><node id='-359' lat='23.985913' lon='120.618832'/><node id='-360' lat='23.986134' lon='120.619229'/><node id='-361' lat='23.986241' lon='120.619342'/><node id='-362' lat='23.986353' lon='120.619584'/><node id='-363' lat='23.986559' lon='120.619816'/><node id='-364' lat='23.986623' lon='120.619918'/><node id='-365' lat='23.98667' lon='120.620049'/><node id='-366' lat='23.987062' lon='120.62054'/><node id='-367' lat='23.987311' lon='120.620724'/><node id='-368' lat='23.987568' lon='120.621056'/><node id='-369' lat='23.987905' lon='120.621312'/><node id='-370' lat='23.988106' lon='120.621464'/><node id='-371' lat='23.988112' lon='120.621506'/><node id='-372' lat='23.987777' lon='120.62146'/><node id='-373' lat='23.987668' lon='120.621462'/><node id='-374' lat='23.987555' lon='120.621631'/><node id='-375' lat='23.987522' lon='120.621694'/><node id='-376' lat='23.987861' lon='120.621913'/><node id='-377' lat='23.988129' lon='120.621981'/><node id='-378' lat='23.988325' lon='120.622087'/><node id='-379' lat='23.98839' lon='120.622129'/><node id='-380' lat='23.988619' lon='120.62228'/><node id='-381' lat='23.988704' lon='120.622304'/><node id='-382' lat='23.988816' lon='120.6223'/><node id='-383' lat='23.988898' lon='120.622263'/><node id='-384' lat='23.98892' lon='120.622135'/><node id='-385' lat='23.988974' lon='120.621903'/><node id='-386' lat='23.989008' lon='120.621826'/><node id='-387' lat='23.989019' lon='120.621766'/><node id='-388' lat='23.989007' lon='120.621593'/><node id='-389' lat='23.989016' lon='120.621557'/><node id='-390' lat='23.989084' lon='120.62152'/><node id='-391' lat='23.989124' lon='120.621481'/><node id='-392' lat='23.989249' lon='120.621992'/><node id='-393' lat='23.989351' lon='120.621976'/><node id='-394' lat='23.989432' lon='120.62204'/><node id='-395' lat='23.989654' lon='120.622326'/><node id='-396' lat='23.989732' lon='120.622446'/><node id='-397' lat='23.989762' lon='120.62244'/><node id='-398' lat='23.98977' lon='120.622398'/><node id='-399' lat='23.989748' lon='120.622304'/><node id='-400' lat='23.989745' lon='120.62226'/><node id='-401' lat='23.989758' lon='120.622244'/><node id='-402' lat='23.989781' lon='120.622237'/><node id='-403' lat='23.989884' lon='120.622274'/><node id='-404' lat='23.989922' lon='120.622277'/><node id='-405' lat='23.989947' lon='120.622261'/><node id='-406' lat='23.989961' lon='120.62222'/><node id='-407' lat='23.989952' lon='120.622194'/><node id='-408' lat='23.989894' lon='120.622125'/><node id='-409' lat='23.989887' lon='120.62207'/><node id='-410' lat='23.989902' lon='120.622051'/><node id='-411' lat='23.989921' lon='120.622048'/><node id='-412' lat='23.989962' lon='120.62206'/><node id='-413' lat='23.990001' lon='120.622083'/><node id='-414' lat='23.990154' lon='120.622134'/><node id='-415' lat='23.99024' lon='120.622142'/><node id='-416' lat='23.990482' lon='120.62204'/><node id='-417' lat='23.990503' lon='120.62208'/><node id='-418' lat='23.990659' lon='120.622375'/><node id='-419' lat='23.990962' lon='120.622799'/><node id='-420' lat='23.991149' lon='120.622959'/><node id='-421' lat='23.99122' lon='120.623003'/><node id='-422' lat='23.991359' lon='120.623089'/><node id='-423' lat='23.991429' lon='120.623204'/><node id='-424' lat='23.991503' lon='120.623266'/><node id='-425' lat='23.991606' lon='120.623424'/><node id='-426' lat='23.991692' lon='120.623541'/><node id='-427' lat='23.991814' lon='120.623661'/><node id='-428' lat='23.991977' lon='120.623774'/><node id='-429' lat='23.992075' lon='120.623955'/><node id='-430' lat='23.992177' lon='120.624202'/><node id='-431' lat='23.992344' lon='120.624332'/><node id='-432' lat='23.992483' lon='120.624573'/><node id='-433' lat='23.992663' lon='120.624797'/><node id='-434' lat='23.992917' lon='120.625033'/><node id='-435' lat='23.992941' lon='120.625082'/><node id='-436' lat='23.992961' lon='120.625184'/><node id='-437' lat='23.992955' lon='120.625449'/><node id='-438' lat='23.992973' lon='120.625547'/><node id='-439' lat='23.993025' lon='120.625594'/><node id='-440' lat='23.993417' lon='120.625387'/><node id='-441' lat='23.993437' lon='120.625444'/><node id='-442' lat='23.993417' lon='120.625387'/><node id='-443' lat='23.993655' lon='120.62526'/><node id='-444' lat='23.993925' lon='120.625081'/><node id='-445' lat='23.993896' lon='120.624957'/><node id='-446' lat='23.993893' lon='120.624841'/><node id='-447' lat='23.993926' lon='120.62471'/><node id='-448' lat='23.994021' lon='120.624533'/><node id='-449' lat='23.993792' lon='120.624201'/><node id='-450' lat='23.993741' lon='120.624086'/><node id='-451' lat='23.993826' lon='120.624165'/><node id='-452' lat='23.993854' lon='120.624191'/><node id='-453' lat='23.993826' lon='120.624165'/><node id='-454' lat='23.993741' lon='120.624086'/><node id='-455' lat='23.993647' lon='120.623978'/><node id='-456' lat='23.993581' lon='120.623854'/><node id='-457' lat='23.993518' lon='120.623714'/><node id='-458' lat='23.993488' lon='120.623466'/><node id='-459' lat='23.993527' lon='120.62318'/><node id='-460' lat='23.993575' lon='120.623053'/><node id='-461' lat='23.993659' lon='120.622926'/><node id='-462' lat='23.993812' lon='120.622727'/><node id='-463' lat='23.993825' lon='120.6227'/><node id='-464' lat='23.993845' lon='120.622662'/><node id='-465' lat='23.993859' lon='120.622597'/><node id='-466' lat='23.993854' lon='120.622503'/><node id='-467' lat='23.993767' lon='120.622074'/><node id='-468' lat='23.993743' lon='120.622005'/><node id='-469' lat='23.993662' lon='120.621913'/><node id='-470' lat='23.993615' lon='120.62182'/><node id='-471' lat='23.993598' lon='120.621632'/><node id='-472' lat='23.993598' lon='120.621622'/><node id='-473' lat='23.993581' lon='120.621584'/><node id='-474' lat='23.993679' lon='120.621581'/><node id='-475' lat='23.99378' lon='120.621589'/><node id='-476' lat='23.993842' lon='120.621638'/><node id='-477' lat='23.993873' lon='120.621694'/><node id='-478' lat='23.993875' lon='120.621715'/><node id='-479' lat='23.993861' lon='120.621766'/><node id='-480' lat='23.993856' lon='120.621815'/><node id='-481' lat='23.993876' lon='120.6219'/><node id='-482' lat='23.993907' lon='120.621994'/><node id='-483' lat='23.994117' lon='120.622283'/><node id='-484' lat='23.994228' lon='120.622782'/><node id='-485' lat='23.994246' lon='120.622902'/><node id='-486' lat='23.994283' lon='120.622953'/><node id='-487' lat='23.99441' lon='120.62305'/><node id='-488' lat='23.994393' lon='120.623121'/><node id='-489' lat='23.994416' lon='120.623261'/><node id='-490' lat='23.994625' lon='120.623923'/><node id='-491' lat='23.994652' lon='120.623955'/><node id='-492' lat='23.994691' lon='120.623971'/><node id='-493' lat='23.994791' lon='120.623888'/><node id='-494' lat='23.995185' lon='120.623667'/><node id='-495' lat='23.995238' lon='120.623649'/><node id='-496' lat='23.995279' lon='120.623684'/><node id='-497' lat='23.995505' lon='120.623845'/><node id='-498' lat='23.995581' lon='120.623929'/><node id='-499' lat='23.995601' lon='120.624087'/><node id='-500' lat='23.995657' lon='120.624176'/><node id='-501' lat='23.995958' lon='120.624357'/><node id='-502' lat='23.996382' lon='120.624262'/><node id='-503' lat='23.996694' lon='120.624202'/><node id='-504' lat='23.996735' lon='120.624203'/><node id='-505' lat='23.996761' lon='120.624217'/><node id='-506' lat='23.996823' lon='120.624301'/><node id='-507' lat='23.996812' lon='120.624543'/><node id='-508' lat='23.996851' lon='120.624666'/><node id='-509' lat='23.996912' lon='120.624771'/><node id='-510' lat='23.997014' lon='120.624891'/><node id='-511' lat='23.997083' lon='120.624924'/><node id='-512' lat='23.997208' lon='120.624914'/><node id='-513' lat='23.997525' lon='120.624842'/><node id='-514' lat='23.997599' lon='120.624772'/><node id='-515' lat='23.997608' lon='120.624573'/><node id='-516' lat='23.997649' lon='120.624513'/><node id='-517' lat='23.997683' lon='120.624504'/><node id='-518' lat='23.997737' lon='120.624479'/><node id='-519' lat='23.997756' lon='120.62447'/><node id='-520' lat='23.997793' lon='120.624528'/><node id='-521' lat='23.997868' lon='120.624808'/><node id='-522' lat='23.997924' lon='120.625071'/><node id='-523' lat='23.997963' lon='120.625523'/><node id='-524' lat='23.998064' lon='120.625521'/><node id='-525' lat='23.998188' lon='120.625606'/><node id='-526' lat='23.998252' lon='120.625689'/><node id='-527' lat='23.998349' lon='120.62596'/><node id='-528' lat='23.998357' lon='120.625983'/><node id='-529' lat='23.998386' lon='120.626012'/><node id='-530' lat='23.99842' lon='120.626012'/><node id='-531' lat='23.998458' lon='120.625975'/><node id='-532' lat='23.998472' lon='120.625912'/><node id='-533' lat='23.998173' lon='120.625281'/><node id='-534' lat='23.998107' lon='120.624989'/><node id='-535' lat='23.998078' lon='120.624574'/><node id='-536' lat='23.99802' lon='120.623994'/><node id='-537' lat='23.997925' lon='120.623738'/><node id='-538' lat='23.997917' lon='120.623463'/><node id='-539' lat='23.998028' lon='120.6227'/><node id='-540' lat='23.998144' lon='120.622421'/><node id='-541' lat='23.998169' lon='120.622212'/><node id='-542' lat='23.998244' lon='120.621987'/><node id='-543' lat='23.998263' lon='120.621996'/><node id='-544' lat='23.998244' lon='120.621987'/><node id='-545' lat='23.99821' lon='120.621744'/><node id='-546' lat='23.998042' lon='120.621378'/><node id='-547' lat='23.997443' lon='120.620519'/><node id='-548' lat='23.997294' lon='120.620243'/><node id='-549' lat='23.997163' lon='120.62006'/><node id='-550' lat='23.996774' lon='120.619556'/><node id='-551' lat='23.99666' lon='120.619334'/><node id='-552' lat='23.996425' lon='120.619154'/><node id='-553' lat='23.996226' lon='120.618986'/><node id='-554' lat='23.996069' lon='120.6188'/><node id='-555' lat='23.995861' lon='120.618204'/><node id='-556' lat='23.995696' lon='120.61799'/><node id='-557' lat='23.995691' lon='120.617984'/><node id='-558' lat='23.995635' lon='120.617967'/><node id='-559' lat='23.995416' lon='120.617584'/><node id='-560' lat='23.995167' lon='120.617484'/><node id='-561' lat='23.995004' lon='120.617326'/><node id='-562' lat='23.994965' lon='120.617335'/><node id='-563' lat='23.995148' lon='120.617824'/><node id='-564' lat='23.99522' lon='120.618168'/><node id='-565' lat='23.995296' lon='120.618263'/><node id='-566' lat='23.995241' lon='120.618394'/><node id='-567' lat='23.995212' lon='120.618502'/><node id='-568' lat='23.99521' lon='120.618606'/><node id='-569' lat='23.99522' lon='120.618718'/><node id='-570' lat='23.995244' lon='120.61877'/><node id='-571' lat='23.995259' lon='120.618828'/><node id='-572' lat='23.995237' lon='120.618907'/><node id='-573' lat='23.995204' lon='120.61893'/><node id='-574' lat='23.995168' lon='120.618876'/><node id='-575' lat='23.995155' lon='120.618812'/><node id='-576' lat='23.995101' lon='120.618718'/><node id='-577' lat='23.995012' lon='120.61847'/><node id='-578' lat='23.994832' lon='120.61821'/><node id='-579' lat='23.994578' lon='120.617908'/><node id='-580' lat='23.994304' lon='120.617559'/><node id='-581' lat='23.99421' lon='120.617403'/><node id='-582' lat='23.994129' lon='120.617266'/><node id='-583' lat='23.99399' lon='120.616979'/><node id='-584' lat='23.993904' lon='120.616859'/><node id='-585' lat='23.993822' lon='120.616587'/><node id='-586' lat='23.993804' lon='120.616563'/><node id='-587' lat='23.993692' lon='120.616472'/><node id='-588' lat='23.993559' lon='120.616275'/><node id='-589' lat='23.993452' lon='120.616096'/><node id='-590' lat='23.993317' lon='120.615804'/><node id='-591' lat='23.993212' lon='120.615525'/><node id='-592' lat='23.993144' lon='120.615316'/><node id='-593' lat='23.993109' lon='120.615233'/><node id='-594' lat='23.993237' lon='120.615147'/><node id='-595' lat='23.99333' lon='120.614865'/><node id='-596' lat='23.993036' lon='120.613843'/><node id='-597' lat='23.993048' lon='120.613747'/><node id='-598' lat='23.993135' lon='120.61355'/><node id='-599' lat='23.993093' lon='120.61343'/><node id='-600' lat='23.993083' lon='120.613328'/><node id='-601' lat='23.993172' lon='120.613088'/><node id='-602' lat='23.993168' lon='120.612963'/><node id='-603' lat='23.993133' lon='120.612916'/><node id='-604' lat='23.993014' lon='120.612667'/><node id='-605' lat='23.992883' lon='120.612149'/><way id='-1'><nd ref='-2'/><nd ref='-3'/><nd ref='-4'/><nd ref='-5'/><nd ref='-6'/><nd ref='-7'/><nd ref='-8'/><nd ref='-9'/><nd ref='-10'/><nd ref='-11'/><nd ref='-12'/><nd ref='-13'/><nd ref='-14'/><nd ref='-15'/><nd ref='-16'/><nd ref='-17'/><nd ref='-18'/><nd ref='-19'/><nd ref='-20'/><nd ref='-21'/><nd ref='-22'/><nd ref='-23'/><nd ref='-24'/><nd ref='-25'/><nd ref='-26'/><nd ref='-27'/><nd ref='-28'/><nd ref='-29'/><nd ref='-30'/><nd ref='-31'/><nd ref='-32'/><nd ref='-33'/><nd ref='-34'/><nd ref='-35'/><nd ref='-36'/><nd ref='-37'/><nd ref='-38'/><nd ref='-39'/><nd ref='-40'/><nd ref='-41'/><nd ref='-42'/><nd ref='-43'/><nd ref='-44'/><nd ref='-45'/><nd ref='-46'/><nd ref='-47'/><nd ref='-48'/><nd ref='-49'/><nd ref='-50'/><nd ref='-51'/><nd ref='-52'/><nd ref='-53'/><nd ref='-54'/><nd ref='-55'/><nd ref='-56'/><nd ref='-57'/><nd ref='-58'/><nd ref='-59'/><nd ref='-60'/><nd ref='-61'/><nd ref='-62'/><nd ref='-63'/><nd ref='-64'/><nd ref='-65'/><nd ref='-66'/><nd ref='-67'/><nd ref='-68'/><nd ref='-69'/><nd ref='-70'/><nd ref='-71'/><nd ref='-72'/><nd ref='-73'/><nd ref='-74'/><nd ref='-75'/><nd ref='-76'/><nd ref='-77'/><nd ref='-78'/><nd ref='-79'/><nd ref='-80'/><nd ref='-81'/><nd ref='-82'/><nd ref='-83'/><nd ref='-84'/><nd ref='-85'/><nd ref='-86'/><nd ref='-87'/><nd ref='-88'/><nd ref='-89'/><nd ref='-90'/><nd ref='-91'/><nd ref='-92'/><nd ref='-93'/><nd ref='-94'/><nd ref='-95'/><nd ref='-96'/><nd ref='-97'/><nd ref='-98'/><nd ref='-99'/><nd ref='-100'/><nd ref='-101'/><nd ref='-102'/><nd ref='-103'/><nd ref='-104'/><nd ref='-105'/><nd ref='-106'/><nd ref='-107'/><nd ref='-108'/><nd ref='-109'/><nd ref='-110'/><nd ref='-111'/><nd ref='-112'/><nd ref='-113'/><nd ref='-114'/><nd ref='-115'/><nd ref='-116'/><nd ref='-117'/><nd ref='-118'/><nd ref='-119'/><nd ref='-120'/><nd ref='-121'/><nd ref='-122'/><nd ref='-123'/><nd ref='-124'/><nd ref='-125'/><nd ref='-126'/><nd ref='-127'/><nd ref='-128'/><nd ref='-129'/><nd ref='-130'/><nd ref='-131'/><nd ref='-132'/><nd ref='-133'/><nd ref='-134'/><nd ref='-135'/><nd ref='-136'/><nd ref='-137'/><nd ref='-138'/><nd ref='-139'/><nd ref='-140'/><nd ref='-141'/><nd ref='-142'/><nd ref='-143'/><nd ref='-144'/><nd ref='-145'/><nd ref='-146'/><nd ref='-147'/><nd ref='-148'/><nd ref='-149'/><nd ref='-150'/><nd ref='-151'/><nd ref='-152'/><nd ref='-153'/><nd ref='-154'/><nd ref='-155'/><nd ref='-156'/><nd ref='-157'/><nd ref='-158'/><nd ref='-159'/><nd ref='-160'/><nd ref='-161'/><nd ref='-162'/><nd ref='-163'/><nd ref='-164'/><nd ref='-165'/><nd ref='-166'/><nd ref='-167'/><nd ref='-168'/><nd ref='-169'/><nd ref='-170'/><nd ref='-171'/><nd ref='-172'/><nd ref='-173'/><nd ref='-174'/><nd ref='-175'/><nd ref='-176'/><nd ref='-177'/><nd ref='-178'/><nd ref='-179'/><nd ref='-180'/><nd ref='-181'/><nd ref='-182'/><nd ref='-183'/><nd ref='-184'/><nd ref='-185'/><nd ref='-186'/><nd ref='-187'/><nd ref='-188'/><nd ref='-189'/><nd ref='-190'/><nd ref='-191'/><nd ref='-192'/><nd ref='-193'/><nd ref='-194'/><nd ref='-195'/><nd ref='-196'/><nd ref='-197'/><nd ref='-198'/><nd ref='-199'/><nd ref='-200'/><nd ref='-201'/><nd ref='-202'/><nd ref='-203'/><nd ref='-204'/><nd ref='-205'/><nd ref='-206'/><nd ref='-207'/><nd ref='-208'/><nd ref='-209'/><nd ref='-210'/><nd ref='-211'/><nd ref='-212'/><nd ref='-213'/><nd ref='-214'/><nd ref='-215'/><nd ref='-216'/><nd ref='-217'/><nd ref='-218'/><nd ref='-219'/><nd ref='-220'/><nd ref='-221'/><nd ref='-222'/><nd ref='-223'/><nd ref='-224'/><nd ref='-225'/><nd ref='-226'/><nd ref='-227'/><nd ref='-228'/><nd ref='-229'/><nd ref='-230'/><nd ref='-231'/><nd ref='-232'/><nd ref='-233'/><nd ref='-234'/><nd ref='-235'/><nd ref='-236'/><nd ref='-237'/><nd ref='-238'/><nd ref='-239'/><nd ref='-240'/><nd ref='-241'/><nd ref='-242'/><nd ref='-243'/><nd ref='-244'/><nd ref='-245'/><nd ref='-246'/><nd ref='-247'/><nd ref='-248'/><nd ref='-249'/><nd ref='-250'/><nd ref='-251'/><nd ref='-252'/><nd ref='-253'/><nd ref='-254'/><nd ref='-255'/><nd ref='-256'/><nd ref='-257'/><nd ref='-258'/><nd ref='-259'/><nd ref='-260'/><nd ref='-261'/><nd ref='-262'/><nd ref='-263'/><nd ref='-264'/><nd ref='-265'/><nd ref='-266'/><nd ref='-267'/><nd ref='-268'/><nd ref='-269'/><nd ref='-270'/><nd ref='-271'/><nd ref='-272'/><nd ref='-273'/><nd ref='-274'/><nd ref='-275'/><nd ref='-276'/><nd ref='-277'/><nd ref='-278'/><nd ref='-279'/><nd ref='-280'/><nd ref='-281'/><nd ref='-282'/><nd ref='-283'/><nd ref='-284'/><nd ref='-285'/><nd ref='-286'/><nd ref='-287'/><nd ref='-288'/><nd ref='-289'/><nd ref='-290'/><nd ref='-291'/><nd ref='-292'/><nd ref='-293'/><nd ref='-294'/><nd ref='-295'/><nd ref='-296'/><nd ref='-297'/><nd ref='-298'/><nd ref='-299'/><nd ref='-300'/><nd ref='-301'/><nd ref='-302'/><nd ref='-303'/><nd ref='-304'/><nd ref='-305'/><nd ref='-306'/><nd ref='-307'/><nd ref='-308'/><nd ref='-309'/><nd ref='-310'/><nd ref='-311'/><nd ref='-312'/><nd ref='-313'/><nd ref='-314'/><nd ref='-315'/><nd ref='-316'/><nd ref='-317'/><nd ref='-318'/><nd ref='-319'/><nd ref='-320'/><nd ref='-321'/><nd ref='-322'/><nd ref='-323'/><nd ref='-324'/><nd ref='-325'/><nd ref='-326'/><nd ref='-327'/><nd ref='-328'/><nd ref='-329'/><nd ref='-330'/><nd ref='-331'/><nd ref='-332'/><nd ref='-333'/><nd ref='-334'/><nd ref='-335'/><nd ref='-336'/><nd ref='-337'/><nd ref='-338'/><nd ref='-339'/><nd ref='-340'/><nd ref='-341'/><nd ref='-342'/><nd ref='-343'/><nd ref='-344'/><nd ref='-345'/><nd ref='-346'/><nd ref='-347'/><nd ref='-348'/><nd ref='-349'/><nd ref='-350'/><nd ref='-351'/><nd ref='-352'/><nd ref='-353'/><nd ref='-354'/><nd ref='-355'/><nd ref='-356'/><nd ref='-357'/><nd ref='-358'/><nd ref='-359'/><nd ref='-360'/><nd ref='-361'/><nd ref='-362'/><nd ref='-363'/><nd ref='-364'/><nd ref='-365'/><nd ref='-366'/><nd ref='-367'/><nd ref='-368'/><nd ref='-369'/><nd ref='-370'/><nd ref='-371'/><nd ref='-372'/><nd ref='-373'/><nd ref='-374'/><nd ref='-375'/><nd ref='-376'/><nd ref='-377'/><nd ref='-378'/><nd ref='-379'/><nd ref='-380'/><nd ref='-381'/><nd ref='-382'/><nd ref='-383'/><nd ref='-384'/><nd ref='-385'/><nd ref='-386'/><nd ref='-387'/><nd ref='-388'/><nd ref='-389'/><nd ref='-390'/><nd ref='-391'/><nd ref='-392'/><nd ref='-393'/><nd ref='-394'/><nd ref='-395'/><nd ref='-396'/><nd ref='-397'/><nd ref='-398'/><nd ref='-399'/><nd ref='-400'/><nd ref='-401'/><nd ref='-402'/><nd ref='-403'/><nd ref='-404'/><nd ref='-405'/><nd ref='-406'/><nd ref='-407'/><nd ref='-408'/><nd ref='-409'/><nd ref='-410'/><nd ref='-411'/><nd ref='-412'/><nd ref='-413'/><nd ref='-414'/><nd ref='-415'/><nd ref='-416'/><nd ref='-417'/><nd ref='-418'/><nd ref='-419'/><nd ref='-420'/><nd ref='-421'/><nd ref='-422'/><nd ref='-423'/><nd ref='-424'/><nd ref='-425'/><nd ref='-426'/><nd ref='-427'/><nd ref='-428'/><nd ref='-429'/><nd ref='-430'/><nd ref='-431'/><nd ref='-432'/><nd ref='-433'/><nd ref='-434'/><nd ref='-435'/><nd ref='-436'/><nd ref='-437'/><nd ref='-438'/><nd ref='-439'/><nd ref='-440'/><nd ref='-441'/><nd ref='-442'/><nd ref='-443'/><nd ref='-444'/><nd ref='-445'/><nd ref='-446'/><nd ref='-447'/><nd ref='-448'/><nd ref='-449'/><nd ref='-450'/><nd ref='-451'/><nd ref='-452'/><nd ref='-453'/><nd ref='-454'/><nd ref='-455'/><nd ref='-456'/><nd ref='-457'/><nd ref='-458'/><nd ref='-459'/><nd ref='-460'/><nd ref='-461'/><nd ref='-462'/><nd ref='-463'/><nd ref='-464'/><nd ref='-465'/><nd ref='-466'/><nd ref='-467'/><nd ref='-468'/><nd ref='-469'/><nd ref='-470'/><nd ref='-471'/><nd ref='-472'/><nd ref='-473'/><nd ref='-474'/><nd ref='-475'/><nd ref='-476'/><nd ref='-477'/><nd ref='-478'/><nd ref='-479'/><nd ref='-480'/><nd ref='-481'/><nd ref='-482'/><nd ref='-483'/><nd ref='-484'/><nd ref='-485'/><nd ref='-486'/><nd ref='-487'/><nd ref='-488'/><nd ref='-489'/><nd ref='-490'/><nd ref='-491'/><nd ref='-492'/><nd ref='-493'/><nd ref='-494'/><nd ref='-495'/><nd ref='-496'/><nd ref='-497'/><nd ref='-498'/><nd ref='-499'/><nd ref='-500'/><nd ref='-501'/><nd ref='-502'/><nd ref='-503'/><nd ref='-504'/><nd ref='-505'/><nd ref='-506'/><nd ref='-507'/><nd ref='-508'/><nd ref='-509'/><nd ref='-510'/><nd ref='-511'/><nd ref='-512'/><nd ref='-513'/><nd ref='-514'/><nd ref='-515'/><nd ref='-516'/><nd ref='-517'/><nd ref='-518'/><nd ref='-519'/><nd ref='-520'/><nd ref='-521'/><nd ref='-522'/><nd ref='-523'/><nd ref='-524'/><nd ref='-525'/><nd ref='-526'/><nd ref='-527'/><nd ref='-528'/><nd ref='-529'/><nd ref='-530'/><nd ref='-531'/><nd ref='-532'/><nd ref='-533'/><nd ref='-534'/><nd ref='-535'/><nd ref='-536'/><nd ref='-537'/><nd ref='-538'/><nd ref='-539'/><nd ref='-540'/><nd ref='-541'/><nd ref='-542'/><nd ref='-543'/><nd ref='-544'/><nd ref='-545'/><nd ref='-546'/><nd ref='-547'/><nd ref='-548'/><nd ref='-549'/><nd ref='-550'/><nd ref='-551'/><nd ref='-552'/><nd ref='-553'/><nd ref='-554'/><nd ref='-555'/><nd ref='-556'/><nd ref='-557'/><nd ref='-558'/><nd ref='-559'/><nd ref='-560'/><nd ref='-561'/><nd ref='-562'/><nd ref='-563'/><nd ref='-564'/><nd ref='-565'/><nd ref='-566'/><nd ref='-567'/><nd ref='-568'/><nd ref='-569'/><nd ref='-570'/><nd ref='-571'/><nd ref='-572'/><nd ref='-573'/><nd ref='-574'/><nd ref='-575'/><nd ref='-576'/><nd ref='-577'/><nd ref='-578'/><nd ref='-579'/><nd ref='-580'/><nd ref='-581'/><nd ref='-582'/><nd ref='-583'/><nd ref='-584'/><nd ref='-585'/><nd ref='-586'/><nd ref='-587'/><nd ref='-588'/><nd ref='-589'/><nd ref='-590'/><nd ref='-591'/><nd ref='-592'/><nd ref='-593'/><nd ref='-594'/><nd ref='-595'/><nd ref='-596'/><nd ref='-597'/><nd ref='-598'/><nd ref='-599'/><nd ref='-600'/><nd ref='-601'/><nd ref='-602'/><nd ref='-603'/><nd ref='-604'/><nd ref='-605'/></way></osm>